start=new Date('2023-03-07T00:00:00.000Z').valueOf();
sats=[{"MEAN_MOTION_DDOT":"0.0000000000000","LAUNCH_DATE":"2022-10-28","CLASSIFICATION_TYPE":"U","PERIAPSIS":"543.895","REF_FRAME":"TEME","ECCENTRICITY":"0.00012000","INCLINATION":"53.2154","MEAN_MOTION_DOT":"0.00006258","OBJECT_TYPE":"PAYLOAD","EPHEMERIS_TYPE":"0","SITE":"AFWTR","DECAY_DATE":null,"ARG_OF_PERICENTER":"84.2953","MEAN_ELEMENT_THEORY":"SGP4","MEAN_MOTION":"15.07212097","EPOCH":"2023-03-06T18:51:35.940960","TLE_LINE1":"1 54189U 22141AJ  23065.78583265  .00006258  00000-0  42929-3 0  9997","FILE":"3852926","SEMIMAJOR_AXIS":"6922.861","NORAD_CAT_ID":"54189","CENTER_NAME":"EARTH","APOAPSIS":"545.556","MEAN_ANOMALY":"275.8175","GP_ID":"227599580","TIME_SYSTEM":"UTC","RCS_SIZE":"LARGE","TLE_LINE2":"2 54189  53.2154 257.0414 0001200  84.2953 275.8175 15.07212097 20197","PERIOD":"95.541","OBJECT_ID":"2022-141AJ","BSTAR":"0.00042929000000","RA_OF_ASC_NODE":"257.0414","REV_AT_EPOCH":"2019","COUNTRY_CODE":"US","ELEMENT_SET_NO":"999","OBJECT_NAME":"STARLINK-5182"},{"OBJECT_NAME":"STARLINK-5281","ELEMENT_SET_NO":"999","COUNTRY_CODE":"US","REV_AT_EPOCH":"2011","RA_OF_ASC_NODE":"246.9769","BSTAR":"0.00004237400000","OBJECT_ID":"2022-141AK","PERIOD":"95.437","TLE_LINE2":"2 54190  53.2180 246.9769 0000971  96.7996 263.3106 15.08841903 20110","RCS_SIZE":"LARGE","TIME_SYSTEM":"UTC","GP_ID":"227630380","MEAN_ANOMALY":"263.3106","CENTER_NAME":"EARTH","APOAPSIS":"540.411","NORAD_CAT_ID":"54190","SEMIMAJOR_AXIS":"6917.875","FILE":"3853141","TLE_LINE1":"1 54190U 22141AK  23065.88252876  .00000387  00000-0  42374-4 0  9993","MEAN_MOTION":"15.08841903","EPOCH":"2023-03-06T21:10:50.484864","MEAN_ELEMENT_THEORY":"SGP4","ARG_OF_PERICENTER":"96.7996","DECAY_DATE":null,"SITE":"AFWTR","EPHEMERIS_TYPE":"0","OBJECT_TYPE":"PAYLOAD","MEAN_MOTION_DOT":"0.00000387","INCLINATION":"53.2180","REF_FRAME":"TEME","ECCENTRICITY":"0.00009710","PERIAPSIS":"539.068","CLASSIFICATION_TYPE":"U","LAUNCH_DATE":"2022-10-28","MEAN_MOTION_DDOT":"0.0000000000000"},{"COUNTRY_CODE":"US","REV_AT_EPOCH":"2011","RA_OF_ASC_NODE":"247.0453","OBJECT_NAME":"STARLINK-4619","ELEMENT_SET_NO":"999","MEAN_ANOMALY":"285.1456","GP_ID":"227630131","FILE":"3853141","SEMIMAJOR_AXIS":"6917.898","NORAD_CAT_ID":"54191","CENTER_NAME":"EARTH","APOAPSIS":"540.511","OBJECT_ID":"2022-141AL","BSTAR":"0.00054808000000","TIME_SYSTEM":"UTC","RCS_SIZE":"LARGE","TLE_LINE2":"2 54191  53.2148 247.0453 0001081  74.9656 285.1456 15.08834254 20112","PERIOD":"95.438","MEAN_MOTION_DOT":"0.00008444","INCLINATION":"53.2148","OBJECT_TYPE":"PAYLOAD","EPHEMERIS_TYPE":"0","ECCENTRICITY":"0.00010810","REF_FRAME":"TEME","MEAN_ELEMENT_THEORY":"SGP4","MEAN_MOTION":"15.08834254","EPOCH":"2023-03-06T21:26:46.984704","TLE_LINE1":"1 54191U 22141AL  23065.89359936  .00008444  00000-0  54808-3 0  9996","DECAY_DATE":null,"SITE":"AFWTR","ARG_OF_PERICENTER":"74.9656","MEAN_MOTION_DDOT":"0.0000000000000","CLASSIFICATION_TYPE":"U","LAUNCH_DATE":"2022-10-28","PERIAPSIS":"539.015"},{"RA_OF_ASC_NODE":"247.0660","COUNTRY_CODE":"US","REV_AT_EPOCH":"2033","ELEMENT_SET_NO":"999","OBJECT_NAME":"STARLINK-5268","CENTER_NAME":"EARTH","APOAPSIS":"540.695","NORAD_CAT_ID":"54192","SEMIMAJOR_AXIS":"6917.849","FILE":"3852926","GP_ID":"227600078","MEAN_ANOMALY":"264.4733","PERIOD":"95.437","TLE_LINE2":"2 54192  53.2154 247.0660 0001418  95.6420 264.4733 15.08850384 20337","RCS_SIZE":"LARGE","TIME_SYSTEM":"UTC","BSTAR":"0.00042654000000","OBJECT_ID":"2022-141AM","REF_FRAME":"TEME","ECCENTRICITY":"0.00014180","EPHEMERIS_TYPE":"0","OBJECT_TYPE":"PAYLOAD","INCLINATION":"53.2154","MEAN_MOTION_DOT":"0.00006509","ARG_OF_PERICENTER":"95.6420","DECAY_DATE":null,"SITE":"AFWTR","TLE_LINE1":"1 54192U 22141AM  23065.78408710  .00006509  00000-0  42654-3 0  9996","MEAN_ELEMENT_THEORY":"SGP4","MEAN_MOTION":"15.08850384","EPOCH":"2023-03-06T18:49:05.125440","CLASSIFICATION_TYPE":"U","LAUNCH_DATE":"2022-10-28","MEAN_MOTION_DDOT":"0.0000000000000","PERIAPSIS":"538.733"},{"ELEMENT_SET_NO":"999","OBJECT_NAME":"STARLINK-5263","RA_OF_ASC_NODE":"246.9312","COUNTRY_CODE":"US","REV_AT_EPOCH":"2011","PERIOD":"95.438","TLE_LINE2":"2 54193  53.2153 246.9312 0001523  72.1271 287.9887 15.08839897 20112","RCS_SIZE":"LARGE","TIME_SYSTEM":"UTC","BSTAR":"0.00009076600000","OBJECT_ID":"2022-141AN","CENTER_NAME":"EARTH","APOAPSIS":"540.799","NORAD_CAT_ID":"54193","SEMIMAJOR_AXIS":"6917.881","FILE":"3853141","GP_ID":"227629630","MEAN_ANOMALY":"287.9887","ARG_OF_PERICENTER":"72.1271","DECAY_DATE":null,"SITE":"AFWTR","TLE_LINE1":"1 54193U 22141AN  23065.87516599  .00001157  00000-0  90766-4 0  9994","EPOCH":"2023-03-06T21:00:14.341536","MEAN_MOTION":"15.08839897","MEAN_ELEMENT_THEORY":"SGP4","ECCENTRICITY":"0.00015230","REF_FRAME":"TEME","EPHEMERIS_TYPE":"0","OBJECT_TYPE":"PAYLOAD","INCLINATION":"53.2153","MEAN_MOTION_DOT":"0.00001157","PERIAPSIS":"538.692","LAUNCH_DATE":"2022-10-28","CLASSIFICATION_TYPE":"U","MEAN_MOTION_DDOT":"0.0000000000000"},{"RA_OF_ASC_NODE":"247.1751","REV_AT_EPOCH":"2010","COUNTRY_CODE":"US","ELEMENT_SET_NO":"999","OBJECT_NAME":"STARLINK-5271","SEMIMAJOR_AXIS":"6917.868","FILE":"3853141","APOAPSIS":"540.536","CENTER_NAME":"EARTH","NORAD_CAT_ID":"54194","MEAN_ANOMALY":"269.0509","GP_ID":"227629881","RCS_SIZE":"LARGE","TIME_SYSTEM":"UTC","PERIOD":"95.437","TLE_LINE2":"2 54194  53.2172 247.1751 0001160  91.0616 269.0509 15.08843902 20107","OBJECT_ID":"2022-141AP","BSTAR":"0.00011162000000","ECCENTRICITY":"0.00011600","REF_FRAME":"TEME","OBJECT_TYPE":"PAYLOAD","MEAN_MOTION_DOT":"0.00001489","INCLINATION":"53.2172","EPHEMERIS_TYPE":"0","SITE":"AFWTR","DECAY_DATE":null,"ARG_OF_PERICENTER":"91.0616","MEAN_MOTION":"15.08843902","EPOCH":"2023-03-06T19:14:13.965792","MEAN_ELEMENT_THEORY":"SGP4","TLE_LINE1":"1 54194U 22141AP  23065.80155053  .00001489  00000-0  11162-3 0  9992","MEAN_MOTION_DDOT":"0.0000000000000","CLASSIFICATION_TYPE":"U","LAUNCH_DATE":"2022-10-28","PERIAPSIS":"538.931"},{"MEAN_MOTION_DDOT":"0.0000000000000","LAUNCH_DATE":"2022-10-28","CLASSIFICATION_TYPE":"U","PERIAPSIS":"538.843","MEAN_MOTION_DOT":"-0.00000438","INCLINATION":"53.2153","OBJECT_TYPE":"PAYLOAD","EPHEMERIS_TYPE":"0","REF_FRAME":"TEME","ECCENTRICITY":"0.00013060","EPOCH":"2023-03-06T21:05:32.422272","MEAN_MOTION":"15.08839517","MEAN_ELEMENT_THEORY":"SGP4","TLE_LINE1":"1 54195U 22141AQ  23065.87884748 -.00000438  00000-0 -94203-5 0  9994","SITE":"AFWTR","DECAY_DATE":null,"ARG_OF_PERICENTER":"85.8664","MEAN_ANOMALY":"274.2478","GP_ID":"227630631","FILE":"3853141","SEMIMAJOR_AXIS":"6917.882","NORAD_CAT_ID":"54195","APOAPSIS":"540.650","CENTER_NAME":"EARTH","OBJECT_ID":"2022-141AQ","BSTAR":"-0.00000942030000","TIME_SYSTEM":"UTC","RCS_SIZE":"LARGE","TLE_LINE2":"2 54195  53.2153 246.9502 0001306  85.8664 274.2478 15.08839517 20115","PERIOD":"95.438","COUNTRY_CODE":"US","REV_AT_EPOCH":"2011","RA_OF_ASC_NODE":"246.9502","OBJECT_NAME":"STARLINK-5258","ELEMENT_SET_NO":"999"},{"ECCENTRICITY":"0.00011720","REF_FRAME":"TEME","EPHEMERIS_TYPE":"0","OBJECT_TYPE":"PAYLOAD","MEAN_MOTION_DOT":"0.00012811","INCLINATION":"53.2169","ARG_OF_PERICENTER":"91.9407","DECAY_DATE":null,"SITE":"AFWTR","TLE_LINE1":"1 54196U 22141AR  23065.86042058  .00012811  00000-0  82114-3 0  9996","MEAN_MOTION":"15.08857505","MEAN_ELEMENT_THEORY":"SGP4","EPOCH":"2023-03-06T20:39:00.338112","LAUNCH_DATE":"2022-10-28","CLASSIFICATION_TYPE":"U","MEAN_MOTION_DDOT":"0.0000000000000","PERIAPSIS":"538.881","RA_OF_ASC_NODE":"246.8311","REV_AT_EPOCH":"2011","COUNTRY_CODE":"US","ELEMENT_SET_NO":"999","OBJECT_NAME":"STARLINK-5237","APOAPSIS":"540.503","CENTER_NAME":"EARTH","NORAD_CAT_ID":"54196","SEMIMAJOR_AXIS":"6917.827","FILE":"3853141","GP_ID":"227628881","MEAN_ANOMALY":"268.1719","PERIOD":"95.436","TLE_LINE2":"2 54196  53.2169 246.8311 0001172  91.9407 268.1719 15.08857505 20111","RCS_SIZE":"LARGE","TIME_SYSTEM":"UTC","BSTAR":"0.00082114000000","OBJECT_ID":"2022-141AR"},{"RA_OF_ASC_NODE":"246.9082","REV_AT_EPOCH":"2011","COUNTRY_CODE":"US","ELEMENT_SET_NO":"999","OBJECT_NAME":"STARLINK-5234","FILE":"3853141","SEMIMAJOR_AXIS":"6917.755","NORAD_CAT_ID":"54197","APOAPSIS":"540.308","CENTER_NAME":"EARTH","MEAN_ANOMALY":"271.0882","GP_ID":"227629131","TIME_SYSTEM":"UTC","RCS_SIZE":"LARGE","TLE_LINE2":"2 54197  53.2164 246.9082 0000995  89.0224 271.0882 15.08881063 20110","PERIOD":"95.435","OBJECT_ID":"2022-141AS","BSTAR":"0.00164060000000","REF_FRAME":"TEME","ECCENTRICITY":"0.00009950","MEAN_MOTION_DOT":"0.00025948","INCLINATION":"53.2164","OBJECT_TYPE":"PAYLOAD","EPHEMERIS_TYPE":"0","DECAY_DATE":null,"SITE":"AFWTR","ARG_OF_PERICENTER":"89.0224","MEAN_MOTION":"15.08881063","MEAN_ELEMENT_THEORY":"SGP4","EPOCH":"2023-03-06T20:54:56.022336","TLE_LINE1":"1 54197U 22141AS  23065.87148174  .00025948  00000-0  16406-2 0  9999","MEAN_MOTION_DDOT":"0.0000000000000","CLASSIFICATION_TYPE":"U","LAUNCH_DATE":"2022-10-28","PERIAPSIS":"538.932"},{"TIME_SYSTEM":"UTC","RCS_SIZE":"LARGE","TLE_LINE2":"2 54198  53.2170 247.1041 0001237  80.2217 279.8915 15.08854577 20338","PERIOD":"95.437","OBJECT_ID":"2022-141AT","BSTAR":"0.00079841000000","FILE":"3852927","SEMIMAJOR_AXIS":"6917.836","NORAD_CAT_ID":"54198","APOAPSIS":"540.557","CENTER_NAME":"EARTH","MEAN_ANOMALY":"279.8915","GP_ID":"227600095","ELEMENT_SET_NO":"999","OBJECT_NAME":"STARLINK-5246","RA_OF_ASC_NODE":"247.1041","REV_AT_EPOCH":"2033","COUNTRY_CODE":"US","PERIAPSIS":"538.845","MEAN_MOTION_DDOT":"0.0000000000000","CLASSIFICATION_TYPE":"U","LAUNCH_DATE":"2022-10-28","DECAY_DATE":null,"SITE":"AFWTR","ARG_OF_PERICENTER":"80.2217","MEAN_MOTION":"15.08854577","MEAN_ELEMENT_THEORY":"SGP4","EPOCH":"2023-03-06T18:58:18.941664","TLE_LINE1":"1 54198U 22141AT  23065.79049701  .00012447  00000-0  79841-3 0  9990","REF_FRAME":"TEME","ECCENTRICITY":"0.00012370","INCLINATION":"53.2170","MEAN_MOTION_DOT":"0.00012447","OBJECT_TYPE":"PAYLOAD","EPHEMERIS_TYPE":"0"}];
